{
  "type": "FeatureCollection",
  "features": [
    {
      "type": "Feature",
      "properties": {
        "norad_id": 35109,
        "name": "FENGYUN 1C DEB",
        "group": "fengyun-1c-debris",
        "lat": -61.91414949188975,
        "lon": 149.14716516365382,
        "alt_km": 887.9139585273342,
        "timestamp": "2025-12-22T14:45:57.690258+00:00",
        "meta_object_name": "FENGYUN 1C DEB",
        "meta_object_id": "1999-025DKM",
        "meta_epoch": "2025-12-21T22:24:32.699520",
        "meta_mean_motion": 14.20889358,
        "meta_eccentricity": 0.01529167,
        "meta_inclination": 98.616,
        "meta_ra_of_asc_node": 344.9889,
        "meta_arg_of_pericenter": 7.8608,
        "meta_mean_anomaly": 352.4914,
        "meta_ephemeris_type": 0,
        "meta_classification_type": "U",
        "meta_norad_cat_id": 35109,
        "meta_element_set_no": 999,
        "meta_rev_at_epoch": 64290,
        "meta_bstar": 0.00029664803,
        "meta_mean_motion_dot": 6.79e-06,
        "meta_mean_motion_ddot": 0,
        "tle_line1": "1 35109U 99025DKM 25355.93371180  .00000679  00000+0  29665-3 0  9997",
        "tle_line2": "2 35109  98.6160 344.9889 0152916   7.8608 352.4914 14.20889358642905"
      },
      "geometry": {
        "type": "Point",
        "coordinates": [
          149.14716516365382,
          -61.91414949188975
        ]
      }
    },
    {
      "type": "Feature",
      "properties": {
        "norad_id": 35111,
        "name": "FENGYUN 1C DEB",
        "group": "fengyun-1c-debris",
        "lat": 71.52463857722074,
        "lon": -74.25351708536411,
        "alt_km": 848.0958492300106,
        "timestamp": "2025-12-22T14:45:57.690269+00:00",
        "meta_object_name": "FENGYUN 1C DEB",
        "meta_object_id": "1999-025DKP",
        "meta_epoch": "2025-12-16T11:54:10.013472",
        "meta_mean_motion": 14.10973478,
        "meta_eccentricity": 0.0021869,
        "meta_inclination": 99.4657,
        "meta_ra_of_asc_node": 69.3478,
        "meta_arg_of_pericenter": 209.5025,
        "meta_mean_anomaly": 150.4911,
        "meta_ephemeris_type": 0,
        "meta_classification_type": "U",
        "meta_norad_cat_id": 35111,
        "meta_element_set_no": 999,
        "meta_rev_at_epoch": 64197,
        "meta_bstar": 0.00043746639,
        "meta_mean_motion_dot": 7.38e-06,
        "meta_mean_motion_ddot": 0,
        "tle_line1": "1 35111U 99025DKP 25350.49594923  .00000738  00000+0  43747-3 0  9991",
        "tle_line2": "2 35111  99.4657  69.3478 0021869 209.5025 150.4911 14.10973478641971"
      },
      "geometry": {
        "type": "Point",
        "coordinates": [
          -74.25351708536411,
          71.52463857722074
        ]
      }
    },
    {
      "type": "Feature",
      "properties": {
        "norad_id": 35116,
        "name": "FENGYUN 1C DEB",
        "group": "fengyun-1c-debris",
        "lat": 46.88683992331046,
        "lon": -128.1757344872704,
        "alt_km": 819.433472597585,
        "timestamp": "2025-12-22T14:45:57.690279+00:00",
        "meta_object_name": "FENGYUN 1C DEB",
        "meta_object_id": "1999-025DKU",
        "meta_epoch": "2025-12-10T22:26:07.135584",
        "meta_mean_motion": 14.25062569,
        "meta_eccentricity": 0.0059356,
        "meta_inclination": 98.6618,
        "meta_ra_of_asc_node": 30.9255,
        "meta_arg_of_pericenter": 54.5271,
        "meta_mean_anomaly": 306.1428,
        "meta_ephemeris_type": 0,
        "meta_classification_type": "U",
        "meta_norad_cat_id": 35116,
        "meta_element_set_no": 999,
        "meta_rev_at_epoch": 59934,
        "meta_bstar": 0.0014341,
        "meta_mean_motion_dot": 3.381e-05,
        "meta_mean_motion_ddot": 0,
        "tle_line1": "1 35116U 99025DKU 25344.93480481  .00003381  00000+0  14341-2 0  9995",
        "tle_line2": "2 35116  98.6618  30.9255 0059356  54.5271 306.1428 14.25062569599346"
      },
      "geometry": {
        "type": "Point",
        "coordinates": [
          -128.1757344872704,
          46.88683992331046
        ]
      }
    },
    {
      "type": "Feature",
      "properties": {
        "norad_id": 35121,
        "name": "FENGYUN 1C DEB",
        "group": "fengyun-1c-debris",
        "lat": -52.081243544580545,
        "lon": -130.16447872822067,
        "alt_km": 943.1318652002628,
        "timestamp": "2025-12-22T14:45:57.690289+00:00",
        "meta_object_name": "FENGYUN 1C DEB",
        "meta_object_id": "1999-025DKZ",
        "meta_epoch": "2025-12-20T20:16:55.438176",
        "meta_mean_motion": 14.0475576,
        "meta_eccentricity": 0.01584206,
        "meta_inclination": 98.3005,
        "meta_ra_of_asc_node": 217.4143,
        "meta_arg_of_pericenter": 73.7998,
        "meta_mean_anomaly": 288.0539,
        "meta_ephemeris_type": 0,
        "meta_classification_type": "U",
        "meta_norad_cat_id": 35121,
        "meta_element_set_no": 999,
        "meta_rev_at_epoch": 61205,
        "meta_bstar": 0.00030704724,
        "meta_mean_motion_dot": 5.13e-06,
        "meta_mean_motion_ddot": 0,
        "tle_line1": "1 35121U 99025DKZ 25354.84508609  .00000513  00000+0  30705-3 0  9992",
        "tle_line2": "2 35121  98.3005 217.4143 0158420  73.7998 288.0539 14.04755760612052"
      },
      "geometry": {
        "type": "Point",
        "coordinates": [
          -130.16447872822067,
          -52.081243544580545
        ]
      }
    },
    {
      "type": "Feature",
      "properties": {
        "norad_id": 35122,
        "name": "FENGYUN 1C DEB",
        "group": "fengyun-1c-debris",
        "lat": -23.308622140189897,
        "lon": -169.033972041594,
        "alt_km": 845.4509821894126,
        "timestamp": "2025-12-22T14:45:57.690299+00:00",
        "meta_object_name": "FENGYUN 1C DEB",
        "meta_object_id": "1999-025DLA",
        "meta_epoch": "2025-12-16T06:40:38.257248",
        "meta_mean_motion": 14.14128348,
        "meta_eccentricity": 0.00254765,
        "meta_inclination": 98.6718,
        "meta_ra_of_asc_node": 8.5868,
        "meta_arg_of_pericenter": 147.8283,
        "meta_mean_anomaly": 212.4451,
        "meta_ephemeris_type": 0,
        "meta_classification_type": "U",
        "meta_norad_cat_id": 35122,
        "meta_element_set_no": 999,
        "meta_rev_at_epoch": 63917,
        "meta_bstar": 0.00028818425,
        "meta_mean_motion_dot": 5.08e-06,
        "meta_mean_motion_ddot": 0,
        "tle_line1": "1 35122U 99025DLA 25350.27822057  .00000508  00000+0  28818-3 0  9998",
        "tle_line2": "2 35122  98.6718   8.5868 0025476 147.8283 212.4451 14.14128348639177"
      },
      "geometry": {
        "type": "Point",
        "coordinates": [
          -169.033972041594,
          -23.308622140189897
        ]
      }
    },
    {
      "type": "Feature",
      "properties": {
        "norad_id": 35123,
        "name": "FENGYUN 1C DEB",
        "group": "fengyun-1c-debris",
        "lat": -3.409928467076052,
        "lon": -179.77963357979866,
        "alt_km": 792.0755668388492,
        "timestamp": "2025-12-22T14:45:57.690321+00:00",
        "meta_object_name": "FENGYUN 1C DEB",
        "meta_object_id": "1999-025DLB",
        "meta_epoch": "2025-12-19T10:54:35.489088",
        "meta_mean_motion": 14.2423349,
        "meta_eccentricity": 0.0049602,
        "meta_inclination": 99.1223,
        "meta_ra_of_asc_node": 176.3926,
        "meta_arg_of_pericenter": 57.2022,
        "meta_mean_anomaly": 303.3919,
        "meta_ephemeris_type": 0,
        "meta_classification_type": "U",
        "meta_norad_cat_id": 35123,
        "meta_element_set_no": 999,
        "meta_rev_at_epoch": 61169,
        "meta_bstar": 0.00041167,
        "meta_mean_motion_dot": 9.14e-06,
        "meta_mean_motion_ddot": 0,
        "tle_line1": "1 35123U 99025DLB 25353.45457742  .00000914  00000+0  41167-3 0  9990",
        "tle_line2": "2 35123  99.1223 176.3926 0049602  57.2022 303.3919 14.24233490611698"
      },
      "geometry": {
        "type": "Point",
        "coordinates": [
          -179.77963357979866,
          -3.409928467076052
        ]
      }
    },
    {
      "type": "Feature",
      "properties": {
        "norad_id": 35125,
        "name": "FENGYUN 1C DEB",
        "group": "fengyun-1c-debris",
        "lat": 36.961713741083166,
        "lon": 0.9153457683089813,
        "alt_km": 803.5477166189667,
        "timestamp": "2025-12-22T14:45:57.690332+00:00",
        "meta_object_name": "FENGYUN 1C DEB",
        "meta_object_id": "1999-025DLD",
        "meta_epoch": "2025-12-21T06:45:20.871648",
        "meta_mean_motion": 14.33188134,
        "meta_eccentricity": 0.0051785,
        "meta_inclination": 98.2157,
        "meta_ra_of_asc_node": 5.8912,
        "meta_arg_of_pericenter": 268.5763,
        "meta_mean_anomaly": 90.949,
        "meta_ephemeris_type": 0,
        "meta_classification_type": "U",
        "meta_norad_cat_id": 35125,
        "meta_element_set_no": 999,
        "meta_rev_at_epoch": 31404,
        "meta_bstar": 0.00096643,
        "meta_mean_motion_dot": 2.654e-05,
        "meta_mean_motion_ddot": 0,
        "tle_line1": "1 35125U 99025DLD 25355.28149157  .00002654  00000+0  96643-3 0  9995",
        "tle_line2": "2 35125  98.2157   5.8912 0051785 268.5763  90.9490 14.33188134314047"
      },
      "geometry": {
        "type": "Point",
        "coordinates": [
          0.9153457683089813,
          36.961713741083166
        ]
      }
    }
  ]
}